[{"OBJECT_NAME":"STARLINK-30369","OBJECT_ID":"2023-134L","EPOCH":"2026-03-09T09:33:22.683744","MEAN_MOTION":15.27583915,"ECCENTRICITY":5.237e-5,"INCLINATION":42.9965,"RA_OF_ASC_NODE":195.9954,"ARG_OF_PERICENTER":285.4922,"MEAN_ANOMALY":74.5872,"EPHEMERIS_TYPE":0,"CLASSIFICATION_TYPE":"U","NORAD_CAT_ID":57781,"ELEMENT_SET_NO":999,"REV_AT_EPOCH":13946,"BSTAR":1.0491888e-5,"MEAN_MOTION_DOT":2.7e-7,"MEAN_MOTION_DDOT":0},{"OBJECT_NAME":"COSMOS 2251 DEB","OBJECT_ID":"1993-036BN","EPOCH":"2026-03-09T17:54:27.582912","MEAN_MOTION":15.31852549,"ECCENTRICITY":0.0043021,"INCLINATION":74.0291,"RA_OF_ASC_NODE":318.0178,"ARG_OF_PERICENTER":323.0874,"MEAN_ANOMALY":36.7369,"EPHEMERIS_TYPE":0,"CLASSIFICATION_TYPE":"U","NORAD_CAT_ID":33821,"ELEMENT_SET_NO":999,"REV_AT_EPOCH":76330,"BSTAR":0.0011195846,"MEAN_MOTION_DOT":0.00035571,"MEAN_MOTION_DDOT":0}]
